{"type": "FeatureCollection", "features": [ {"type": "Feature", "properties": {"norad_id": 58654, "name": "BEIDOU-3 M28 (C50)", "group": "beidou", "lat": 41.66704425237234, "lon": -148.96009514401663, "alt_km": 21528.402548571677, "timestamp": "2025-12-13T16:48:32.976006+00:00", "meta": {"OBJECT_NAME": "BEIDOU-3 M28 (C50)", "OBJECT_ID": "2023-207A", "EPOCH": "2025-12-11T21:37:33.991968", "MEAN_MOTION": 1.86229651, "ECCENTRICITY": 0.00023562, "INCLINATION": 55.5838, "RA_OF_ASC_NODE": 68.6297, "ARG_OF_PERICENTER": 269.3243, "MEAN_ANOMALY": 90.6691, "EPHEMERIS_TYPE": 0, "CLASSIFICATION_TYPE": "U", "NORAD_CAT_ID": 58654, "ELEMENT_SET_NO": 999, "REV_AT_EPOCH": 1335, "BSTAR": 0, "MEAN_MOTION_DOT": -6.9e-07, "MEAN_MOTION_DDOT": 0}, "tle": {"line1": "1 58654U 23207A   25345.90108787 -.00000069  00000+0  00000+0 0  9995", "line2": "2 58654  55.5838  68.6297 0002356 269.3243  90.6691  1.86229651 13350"}}, "geometry": {"type": "Point", "coordinates": [-148.96009514401663, 41.66704425237234]}}, {"type": "Feature", "properties": {"norad_id": 58655, "name": "BEIDOU-3 M26 (C48)", "group": "beidou", "lat": -54.79972704610979, "lon": -35.41250427136188, "alt_km": 21523.438210454686, "timestamp": "2025-12-13T16:48:32.976017+00:00", "meta": {"OBJECT_NAME": "BEIDOU-3 M26 (C48)", "OBJECT_ID": "2023-207B", "EPOCH": "2025-12-11T03:52:58.066752", "MEAN_MOTION": 1.86231203, "ECCENTRICITY": 0.000378, "INCLINATION": 55.5852, "RA_OF_ASC_NODE": 68.6411, "ARG_OF_PERICENTER": 255.3563, "MEAN_ANOMALY": 104.6232, "EPHEMERIS_TYPE": 0, "CLASSIFICATION_TYPE": "U", "NORAD_CAT_ID": 58655, "ELEMENT_SET_NO": 999, "REV_AT_EPOCH": 1332, "BSTAR": 0, "MEAN_MOTION_DOT": -6.3e-07, "MEAN_MOTION_DDOT": 0}, "tle": {"line1": "1 58655U 23207B   25345.16178318 -.00000063  00000+0  00000+0 0  9995", "line2": "2 58655  55.5852  68.6411 0003780 255.3563 104.6232  1.86231203 13327"}}, "geometry": {"type": "Point", "coordinates": [-35.41250427136188, -54.79972704610979]}}, {"type": "Feature", "properties": {"norad_id": 61186, "name": "BEIDOU-3 M25 (C47)", "group": "beidou", "lat": 15.362029896110375, "lon": -40.09022490837049, "alt_km": 21524.05850219262, "timestamp": "2025-12-13T16:48:32.976028+00:00", "meta": {"OBJECT_NAME": "BEIDOU-3 M25 (C47)", "OBJECT_ID": "2024-168B", "EPOCH": "2025-12-12T20:48:06.582240", "MEAN_MOTION": 1.86230172, "ECCENTRICITY": 0.00054256, "INCLINATION": 54.6417, "RA_OF_ASC_NODE": 308.715, "ARG_OF_PERICENTER": 297.6851, "MEAN_ANOMALY": 242.2861, "EPHEMERIS_TYPE": 0, "CLASSIFICATION_TYPE": "U", "NORAD_CAT_ID": 61186, "ELEMENT_SET_NO": 999, "REV_AT_EPOCH": 831, "BSTAR": 0, "MEAN_MOTION_DOT": -9.5e-07, "MEAN_MOTION_DDOT": 0}, "tle": {"line1": "1 61186U 24168B   25346.86674285 -.00000095  00000+0  00000+0 0  9992", "line2": "2 61186  54.6417 308.7150 0005425 297.6851 242.2861  1.86230172  8316"}}, "geometry": {"type": "Point", "coordinates": [-40.09022490837049, 15.362029896110375]}}, {"type": "Feature", "properties": {"norad_id": 61187, "name": "BEIDOU-3 M27 (C49)", "group": "beidou", "lat": 21.03685731005285, "lon": 112.81067221882435, "alt_km": 21532.232024566278, "timestamp": "2025-12-13T16:48:32.976039+00:00", "meta": {"OBJECT_NAME": "BEIDOU-3 M27 (C49)", "OBJECT_ID": "2024-168C", "EPOCH": "2025-12-12T03:14:00.933792", "MEAN_MOTION": 1.86230278, "ECCENTRICITY": 0.00023762, "INCLINATION": 54.6378, "RA_OF_ASC_NODE": 308.7239, "ARG_OF_PERICENTER": 336.4923, "MEAN_ANOMALY": 207.6472, "EPHEMERIS_TYPE": 0, "CLASSIFICATION_TYPE": "U", "NORAD_CAT_ID": 61187, "ELEMENT_SET_NO": 999, "REV_AT_EPOCH": 577, "BSTAR": 0, "MEAN_MOTION_DOT": -9.1e-07, "MEAN_MOTION_DDOT": 0}, "tle": {"line1": "1 61187U 24168C   25346.13473303 -.00000091  00000+0  00000+0 0  9997", "line2": "2 61187  54.6378 308.7239 0002376 336.4923 207.6472  1.86230278  5772"}}, "geometry": {"type": "Point", "coordinates": [112.81067221882435, 21.03685731005285]}}]}